NORAD_CAT_ID,OBJECT_NAME,OBJECT_TYPE,EPOCH,MEAN_MOTION,ECCENTRICITY,INCLINATION,RA_OF_ASC_NODE,ARG_OF_PERICENTER,MEAN_ANOMALY,BSTAR,MEAN_MOTION_DOT,MEAN_MOTION_DDOT,TLE_LINE0,TLE_LINE1,TLE_LINE2,SEMIMAJOR_AXIS,PERIOD,APOGEE,PERIGEE,DECAYED
55391.0,STARLINK-5077,PAYLOAD,2024-01-31 20:51:52,14.97521694,0.0003095,69.9997,199.5862,270.6367,89.4437,2.4144e-05,1.9e-06,0.0,0 STARLINK-5077,1 55391U 23014A   24031.86935790  .00000190  00000-0  24144-4 0  9999,2 55391  69.9997 199.5862 0003095 270.6367  89.4437 14.97521694 57063,6952.694,96.159,576.71,572.407,0.0
55391.0,STARLINK-5077,PAYLOAD,2024-02-01 11:17:33,14.97522588,0.0003113,69.9997,198.0716,269.7023,90.3779,2.502e-05,2e-06,0.0,0 STARLINK-5077,1 55391U 23014A   24032.47052104  .00000200  00000-0  25020-4 0  9992,2 55391  69.9997 198.0716 0003113 269.7023  90.3779 14.97522588 56213,6952.691,96.159,576.72,572.391,0.0
55391.0,STARLINK-5077,PAYLOAD,2024-02-02 11:20:20,14.9752415,0.0003162,70.0007,195.549,270.8184,89.2613,2.8506e-05,2.41e-06,0.0,0 STARLINK-5077,1 55391U 23014A   24033.47245941  .00000241  00000-0  28506-4 0  9993,2 55391  70.0007 195.5490 0003162 270.8184  89.2613 14.97524150 56361,6952.686,96.159,576.749,572.353,0.0
55391.0,STARLINK-5077,PAYLOAD,2024-02-02 14:32:42,14.97523947,0.0003119,69.9991,195.2117,268.743,91.3371,3.1721e-05,2.78e-06,0.0,0 STARLINK-5077,1 55391U 23014A   24033.60605112  .00000278  00000-0  31721-4 0  9991,2 55391  69.9991 195.2117 0003119 268.7430  91.3371 14.97523947 57320,6952.687,96.159,576.72,572.383,0.0
55391.0,STARLINK-5077,PAYLOAD,2024-02-02 20:57:27,14.97524993,0.000313,69.9998,194.5395,269.3424,90.7376,3.9387e-05,3.68e-06,0.0,0 STARLINK-5077,1 55391U 23014A   24033.87323396  .00000368  00000-0  39387-4 0  9997,2 55391  69.9998 194.5395 0003130 269.3424  90.7376 14.97524993 57364,6952.683,96.159,576.725,572.372,0.0
55391.0,STARLINK-5077,PAYLOAD,2024-02-03 11:23:08,14.97521151,0.0002773,70.0006,193.0262,264.1299,95.9543,-1.2129e-05,-2.34e-06,0.0,0 STARLINK-5077,1 55391U 23014A   24034.47440203 -.00000234  00000-0 -12129-4 0  9990,2 55391  70.0006 193.0262 0002773 264.1299  95.9543 14.97521151 56511,6952.695,96.159,576.488,572.632,0.0
55391.0,STARLINK-5077,PAYLOAD,2024-02-03 12:59:19,14.97520362,0.0002808,70.0005,192.8582,264.7101,95.3737,-1.7561e-05,-2.97e-06,0.0,0 STARLINK-5077,1 55391U 23014A   24034.54119871 -.00000297  00000-0 -17561-4 0  9996,2 55391  70.0005 192.8582 0002808 264.7101  95.3737 14.97520362 57466,6952.698,96.159,576.515,572.61,0.0
55391.0,STARLINK-5077,PAYLOAD,2024-02-03 21:00:15,14.97518466,0.000291,70.0005,192.0173,266.0966,93.986,-3.3464e-05,-4.83e-06,0.0,0 STARLINK-5077,1 55391U 23014A   24034.87518086 -.00000483  00000-0 -33464-4 0  9990,2 55391  70.0005 192.0173 0002910 266.0966  93.9860 14.97518466 57511,6952.704,96.159,576.592,572.545,0.0
55391.0,STARLINK-5077,PAYLOAD,2024-02-04 11:25:55,14.97524853,0.0003081,70.0001,190.5035,268.8108,91.2698,3.94e-05,3.68e-06,0.0,0 STARLINK-5077,1 55391U 23014A   24035.47633896  .00000368  00000-0  39400-4 0  9990,2 55391  70.0001 190.5035 0003081 268.8108  91.2698 14.97524853 56667,6952.684,96.159,576.691,572.407,0.0
55391.0,STARLINK-5077,PAYLOAD,2024-02-04 14:38:18,14.97524852,0.0003086,70.0001,190.1672,268.7876,91.2929,3.8823e-05,3.61e-06,0.0,0 STARLINK-5077,1 55391U 23014A   24035.60993079  .00000361  00000-0  38823-4 0  9998,2 55391  70.0001 190.1672 0003086 268.7876  91.2929 14.97524852 57629,6952.684,96.159,576.694,572.403,0.0
55391.0,STARLINK-5077,PAYLOAD,2024-02-04 19:26:51,14.97525879,0.0003084,70.0002,189.6627,268.7922,91.2883,4.9921e-05,4.91e-06,0.0,0 STARLINK-5077,1 55391U 23014A   24035.81031754  .00000491  00000-0  49921-4 0  9999,2 55391  70.0002 189.6627 0003084 268.7922  91.2883 14.97525879 57655,6952.681,96.159,576.69,572.401,0.0
55391.0,STARLINK-5077,PAYLOAD,2024-02-05 11:28:43,14.97521091,0.0003144,70.0002,187.981,268.582,91.4978,5.1425e-05,5.09e-06,0.0,0 STARLINK-5077,1 55391U 23014A   24036.47827981  .00000509  00000-0  51425-4 0  9999,2 55391  70.0002 187.9810 0003144 268.5820  91.4978 14.97521091 56818,6952.696,96.159,576.746,572.375,0.0
55391.0,STARLINK-5077,PAYLOAD,2024-02-05 14:41:05,14.97520549,0.0003162,70.0002,187.6447,268.1809,91.8987,4.1142e-05,3.88e-06,0.0,0 STARLINK-5077,1 55391U 23014A   24036.61187249  .00000388  00000-0  41142-4 0  9991,2 55391  70.0002 187.6447 0003162 268.1809  91.8987 14.97520549 57771,6952.697,96.159,576.761,572.364,0.0
55391.0,STARLINK-5077,PAYLOAD,2024-02-05 17:53:28,14.97522112,0.000315,70.0002,187.3083,268.0197,92.0601,5.7456e-05,5.79e-06,0.0,0 STARLINK-5077,1 55391U 23014A   24036.74546310  .00000579  00000-0  57456-4 0  9990,2 55391  70.0002 187.3083 0003150 268.0197  92.0601 14.97522112 57796,6952.692,96.159,576.747,572.367,0.0
55391.0,STARLINK-5077,PAYLOAD,2024-02-06 11:31:30,14.97525823,0.0003093,70.0005,185.4588,267.2335,92.8469,8.7094e-06,9e-08,0.0,0 STARLINK-5077,1 55391U 23014A   24037.48021718  .00000009  00000-0  87094-5 0  9992,2 55391  70.0005 185.4588 0003093 267.2335  92.8469 14.97525823 56969,6952.681,96.159,576.696,572.395,0.0
55391.0,STARLINK-5077,PAYLOAD,2024-02-06 13:07:41,14.97525705,0.0003097,70.0005,185.2907,267.2251,92.8553,7.5341e-06,-4e-08,0.0,0 STARLINK-5077,1 55391U 23014A   24037.54701308 -.00000004  00000-0  75341-5 0  9997,2 55391  70.0005 185.2907 0003097 267.2251  92.8553 14.97525705 57912,6952.681,96.159,576.699,572.393,0.0
55391.0,STARLINK-5077,PAYLOAD,2024-02-06 19:32:26,14.97527999,0.0003006,70.0008,184.6186,263.5344,96.5472,3.4359e-05,3.09e-06,0.0,0 STARLINK-5077,1 55391U 23014A   24037.81419397  .00000309  00000-0  34359-4 0  9991,2 55391  70.0008 184.6186 0003006 263.5344  96.5472 14.97527999 57951,6952.674,96.158,576.629,572.449,0.0
55391.0,STARLINK-5077,PAYLOAD,2024-02-07 11:34:18,14.97516387,0.0002857,70.0013,182.9366,257.9521,102.1318,-4.4846e-05,-6.16e-06,0.0,0 STARLINK-5077,1 55391U 23014A   24038.48216301 -.00000616  00000-0 -44846-4 0  9990,2 55391  70.0013 182.9366 0002857 257.9521 102.1318 14.97516387 57115,6952.71,96.159,576.561,572.589,0.0
55391.0,STARLINK-5077,PAYLOAD,2024-02-07 14:46:41,14.97516257,0.0002855,70.0012,182.6003,257.8163,102.2676,-4.4395e-05,-6.11e-06,0.0,0 STARLINK-5077,1 55391U 23014A   24038.61575553 -.00000611  00000-0 -44395-4 0  9996,2 55391  70.0012 182.6003 0002855 257.8163 102.2676 14.97516257 58078,6952.71,96.159,576.56,572.59,0.0
55391.0,STARLINK-5077,PAYLOAD,2024-02-07 19:35:14,14.97519306,0.0002868,70.0011,182.096,263.1793,96.9039,-7.0417e-06,-1.75e-06,0.0,0 STARLINK-5077,1 55391U 23014A   24038.81614129 -.00000175  00000-0 -70417-5 0  9991,2 55391  70.0011 182.0960 0002868 263.1793  96.9039 14.97519306 58100,6952.701,96.159,576.56,572.572,0.0
55391.0,STARLINK-5077,PAYLOAD,2024-02-08 11:37:05,14.9752732,0.0002908,70.0011,180.4135,266.2422,93.8404,3.6429e-05,3.33e-06,0.0,0 STARLINK-5077,1 55391U 23014A   24039.48409467  .00000333  00000-0  36429-4 0  9990,2 55391  70.0011 180.4135 0002908 266.2422  93.8404 14.97527320 57267,6952.676,96.159,576.563,572.519,0.0
55391.0,STARLINK-5077,PAYLOAD,2024-02-08 14:49:28,14.97526021,0.0003061,70.0007,180.0762,268.9748,91.106,4.4933e-05,4.33e-06,0.0,0 STARLINK-5077,1 55391U 23014A   24039.61768697  .00000433  00000-0  44933-4 0  9998,2 55391  70.0007 180.0762 0003061 268.9748  91.1060 14.97526021 58228,6952.68,96.159,576.673,572.417,0.0
55391.0,STARLINK-5077,PAYLOAD,2024-02-08 19:38:01,14.97537306,0.0002558,70.0013,179.5727,262.8368,97.2499,-4.3013e-05,-5.95e-06,0.0,0 STARLINK-5077,1 55391U 23014A   24039.81806895 -.00000595  00000-0 -43013-4 0  9992,2 55391  70.0013 179.5727 0002558 262.8368  97.2499 14.97537306 57310,6952.645,96.158,576.289,572.732,0.0
55391.0,STARLINK-5077,PAYLOAD,2024-02-09 11:39:53,14.9751914,0.0002421,70.0025,177.8919,254.6803,105.4088,0.00011599,1.263e-05,0.0,0 STARLINK-5077,1 55391U 23014A   24040.48603574  .00001263  00000-0  11599-3 0  9990,2 55391  70.0025 177.8919 0002421 254.6803 105.4088 14.97519140 57412,6952.702,96.159,576.25,572.883,0.0
55391.0,STARLINK-5077,PAYLOAD,2024-02-09 13:16:04,14.9751918,0.0002428,70.0024,177.7237,253.1941,106.8951,0.00010934,1.186e-05,0.0,0 STARLINK-5077,1 55391U 23014A   24040.55283198  .00001186  00000-0  10934-3 0  9990,2 55391  70.0024 177.7237 0002428 253.1941 106.8951 14.97519180 58360,6952.701,96.159,576.255,572.878,0.0
55391.0,STARLINK-5077,PAYLOAD,2024-02-10 11:42:41,14.97522951,0.0002843,70.0012,175.3685,265.778,94.3054,-7.1373e-05,-9.26e-06,0.0,0 STARLINK-5077,1 55391U 23014A   24041.48797897 -.00000926  00000-0 -71373-4 0  9997,2 55391  70.0012 175.3685 0002843 265.7780  94.3054 14.97522951 57565,6952.69,96.159,576.531,572.578,0.0
55391.0,STARLINK-5077,PAYLOAD,2024-02-10 18:07:25,14.97523216,0.000265,70.0016,174.6963,256.5539,103.5325,-5.113e-05,-6.9e-06,0.0,0 STARLINK-5077,1 55391U 23014A   24041.75516191 -.00000690  00000-0 -51130-4 0  9990,2 55391  70.0016 174.6963 0002650 256.5539 103.5325 14.97523216 58544,6952.689,96.159,576.396,572.711,0.0
55391.0,STARLINK-5077,PAYLOAD,2024-02-11 11:45:28,14.97520535,0.0002705,70.0015,172.8455,259.0634,101.022,2.5319e-05,2.04e-06,0.0,0 STARLINK-5077,1 55391U 23014A   24042.48991758  .00000204  00000-0  25319-4 0  9996,2 55391  70.0015 172.8455 0002705 259.0634 101.0220 14.97520535 57710,6952.697,96.159,576.443,572.682,0.0
55391.0,STARLINK-5077,PAYLOAD,2024-02-11 13:21:40,14.97520079,0.0002717,70.0014,172.6772,259.065,101.0203,1.9781e-05,1.39e-06,0.0,0 STARLINK-5077,1 55391U 23014A   24042.55671415  .00000139  00000-0  19781-4 0  9992,2 55391  70.0014 172.6772 0002717 259.0650 101.0203 14.97520079 58669,6952.699,96.159,576.453,572.675,0.0
55391.0,STARLINK-5077,PAYLOAD,2024-02-11 18:10:12,14.97566261,0.0002263,70.0016,172.1734,258.7465,101.344,-0.00063151,-7.472e-05,0.0,0 STARLINK-5077,1 55391U 23014A   24042.75708825 -.00007472  00000-0 -63151-3 0  9998,2 55391  70.0016 172.1734 0002263 258.7465 101.3440 14.97566261 57758,6952.556,96.156,575.994,572.847,0.0
